STARLINK-35605          
1 66150U 25240E   25320.83335647 -.00048435  00000+0 -86789-3 0  9998
2 66150  53.1604 228.6996 0001177 100.9550 340.4174 15.49318981  4733
STARLINK-35540          
1 66151U 25240F   25320.83335647 -.00211086  00000+0 -38731-2 0  9996
2 66151  53.1604 228.6949 0000682  83.2980 359.9266 15.49437778  4735
STARLINK-35455          
1 66152U 25240G   25320.83335647 -.02634861  00000+0 -69858-1 0  9992
2 66152  53.1604 228.7408 0001014 107.8481 312.5618 15.41775699  4731
STARLINK-34752          
1 66153U 25240H   25320.83335647  .00040244  00000+0  72828-3 0  9998
2 66153  53.1602 228.6886 0001447  98.2976 348.8201 15.49294646  4737
STARLINK-34625          
1 66154U 25240J   25320.83335647 -.00035467  00000+0 -63246-3 0  9996
2 66154  53.1604 228.6836 0001183  97.3527 351.6911 15.49311613  4783
STARLINK-35580          
1 66155U 25240K   25320.83335647 -.00080120  00000+0 -14459-2 0  9994
2 66155  53.1604 228.6785 0001272  97.1946 353.7575 15.49335180  4738
STARLINK-35621          
1 66156U 25240L   25320.83335647 -.00053139  00000+0 -95351-3 0  9996
2 66156  53.1604 228.6752 0001191  92.7460   0.1275 15.49319808  4734
STARLINK-35594          
1 66157U 25240M   25320.83335647 -.00019131  00000+0 -33697-3 0  9996
2 66157  53.1604 228.6709 0001622  92.2218   2.6006 15.49288771  4735
STARLINK-35587          
1 66158U 25240N   25320.83335647 -.02061812  00000+0 -50525-1 0  9999
2 66158  53.1598 228.6907 0000841 101.2559 343.1456 15.43771654  4732
STARLINK-35586          
1 66159U 25240P   25320.83335647 -.00088467  00000+0 -15989-2 0  9999
2 66159  53.1604 228.6629 0001249 104.1654 354.4537 15.49338380  4740
STARLINK-35636          
1 66160U 25240Q   25320.83335647 -.01743406  00000+0 -43512-1 0  9995
2 66160  53.1600 228.6882 0000527 118.5216 326.8995 15.42672794  4744
STARLINK-35635          
1 66161U 25240R   25320.83335647  .00034738  00000+0  87586-3 0  9995
2 66161  53.1604 228.7313 0001193 101.8347 321.8118 15.39571890  4742
