CCSDS_OMM_VERS = 2.0
CREATION_DATE  = 
ORIGINATOR     = 

OBJECT_NAME    = STARLINK-35605
OBJECT_ID      = 2025-240E
CENTER_NAME    = EARTH
REF_FRAME      = TEME
TIME_SYSTEM    = UTC
MEAN_ELEMENT_THEORY = SGP/SGP4

EPOCH          = 2025-11-16T20:00:01.999008
MEAN_MOTION    = 15.49318981
ECCENTRICITY   = .0001177
INCLINATION    = 53.1604
RA_OF_ASC_NODE = 228.6996
ARG_OF_PERICENTER = 100.9550
MEAN_ANOMALY   = 340.4174

EPHEMERIS_TYPE = 0
CLASSIFICATION_TYPE = U
NORAD_CAT_ID   = 66150
ELEMENT_SET_NO = 999
REV_AT_EPOCH   = 473
BSTAR          = -.86789E-3
MEAN_MOTION_DOT = -.48435E-3
MEAN_MOTION_DDOT = 0

CCSDS_OMM_VERS = 2.0
CREATION_DATE  = 
ORIGINATOR     = 

OBJECT_NAME    = STARLINK-35540
OBJECT_ID      = 2025-240F
CENTER_NAME    = EARTH
REF_FRAME      = TEME
TIME_SYSTEM    = UTC
MEAN_ELEMENT_THEORY = SGP/SGP4

EPOCH          = 2025-11-16T20:00:01.999008
MEAN_MOTION    = 15.49437778
ECCENTRICITY   = .0000682
INCLINATION    = 53.1604
RA_OF_ASC_NODE = 228.6949
ARG_OF_PERICENTER = 83.2980
MEAN_ANOMALY   = 359.9266

EPHEMERIS_TYPE = 0
CLASSIFICATION_TYPE = U
NORAD_CAT_ID   = 66151
ELEMENT_SET_NO = 999
REV_AT_EPOCH   = 473
BSTAR          = -.38731E-2
MEAN_MOTION_DOT = -.211086E-2
MEAN_MOTION_DDOT = 0

CCSDS_OMM_VERS = 2.0
CREATION_DATE  = 
ORIGINATOR     = 

OBJECT_NAME    = STARLINK-35455
OBJECT_ID      = 2025-240G
CENTER_NAME    = EARTH
REF_FRAME      = TEME
TIME_SYSTEM    = UTC
MEAN_ELEMENT_THEORY = SGP/SGP4

EPOCH          = 2025-11-16T20:00:01.999008
MEAN_MOTION    = 15.41775699
ECCENTRICITY   = .0001014
INCLINATION    = 53.1604
RA_OF_ASC_NODE = 228.7408
ARG_OF_PERICENTER = 107.8481
MEAN_ANOMALY   = 312.5618

EPHEMERIS_TYPE = 0
CLASSIFICATION_TYPE = U
NORAD_CAT_ID   = 66152
ELEMENT_SET_NO = 999
REV_AT_EPOCH   = 473
BSTAR          = -.69858E-1
MEAN_MOTION_DOT = -.2634861E-1
MEAN_MOTION_DDOT = 0

CCSDS_OMM_VERS = 2.0
CREATION_DATE  = 
ORIGINATOR     = 

OBJECT_NAME    = STARLINK-34752
OBJECT_ID      = 2025-240H
CENTER_NAME    = EARTH
REF_FRAME      = TEME
TIME_SYSTEM    = UTC
MEAN_ELEMENT_THEORY = SGP/SGP4

EPOCH          = 2025-11-16T20:00:01.999008
MEAN_MOTION    = 15.49294646
ECCENTRICITY   = .0001447
INCLINATION    = 53.1602
RA_OF_ASC_NODE = 228.6886
ARG_OF_PERICENTER = 98.2976
MEAN_ANOMALY   = 348.8201

EPHEMERIS_TYPE = 0
CLASSIFICATION_TYPE = U
NORAD_CAT_ID   = 66153
ELEMENT_SET_NO = 999
REV_AT_EPOCH   = 473
BSTAR          = .72828E-3
MEAN_MOTION_DOT = .40244E-3
MEAN_MOTION_DDOT = 0

CCSDS_OMM_VERS = 2.0
CREATION_DATE  = 
ORIGINATOR     = 

OBJECT_NAME    = STARLINK-34625
OBJECT_ID      = 2025-240J
CENTER_NAME    = EARTH
REF_FRAME      = TEME
TIME_SYSTEM    = UTC
MEAN_ELEMENT_THEORY = SGP/SGP4

EPOCH          = 2025-11-16T20:00:01.999008
MEAN_MOTION    = 15.49311613
ECCENTRICITY   = .0001183
INCLINATION    = 53.1604
RA_OF_ASC_NODE = 228.6836
ARG_OF_PERICENTER = 97.3527
MEAN_ANOMALY   = 351.6911

EPHEMERIS_TYPE = 0
CLASSIFICATION_TYPE = U
NORAD_CAT_ID   = 66154
ELEMENT_SET_NO = 999
REV_AT_EPOCH   = 478
BSTAR          = -.63246E-3
MEAN_MOTION_DOT = -.35467E-3
MEAN_MOTION_DDOT = 0

CCSDS_OMM_VERS = 2.0
CREATION_DATE  = 
ORIGINATOR     = 

OBJECT_NAME    = STARLINK-35580
OBJECT_ID      = 2025-240K
CENTER_NAME    = EARTH
REF_FRAME      = TEME
TIME_SYSTEM    = UTC
MEAN_ELEMENT_THEORY = SGP/SGP4

EPOCH          = 2025-11-16T20:00:01.999008
MEAN_MOTION    = 15.49335180
ECCENTRICITY   = .0001272
INCLINATION    = 53.1604
RA_OF_ASC_NODE = 228.6785
ARG_OF_PERICENTER = 97.1946
MEAN_ANOMALY   = 353.7575

EPHEMERIS_TYPE = 0
CLASSIFICATION_TYPE = U
NORAD_CAT_ID   = 66155
ELEMENT_SET_NO = 999
REV_AT_EPOCH   = 473
BSTAR          = -.14459E-2
MEAN_MOTION_DOT = -.8012E-3
MEAN_MOTION_DDOT = 0

CCSDS_OMM_VERS = 2.0
CREATION_DATE  = 
ORIGINATOR     = 

OBJECT_NAME    = STARLINK-35621
OBJECT_ID      = 2025-240L
CENTER_NAME    = EARTH
REF_FRAME      = TEME
TIME_SYSTEM    = UTC
MEAN_ELEMENT_THEORY = SGP/SGP4

EPOCH          = 2025-11-16T20:00:01.999008
MEAN_MOTION    = 15.49319808
ECCENTRICITY   = .0001191
INCLINATION    = 53.1604
RA_OF_ASC_NODE = 228.6752
ARG_OF_PERICENTER = 92.7460
MEAN_ANOMALY   = 0.1275

EPHEMERIS_TYPE = 0
CLASSIFICATION_TYPE = U
NORAD_CAT_ID   = 66156
ELEMENT_SET_NO = 999
REV_AT_EPOCH   = 473
BSTAR          = -.95351E-3
MEAN_MOTION_DOT = -.53139E-3
MEAN_MOTION_DDOT = 0

CCSDS_OMM_VERS = 2.0
CREATION_DATE  = 
ORIGINATOR     = 

OBJECT_NAME    = STARLINK-35594
OBJECT_ID      = 2025-240M
CENTER_NAME    = EARTH
REF_FRAME      = TEME
TIME_SYSTEM    = UTC
MEAN_ELEMENT_THEORY = SGP/SGP4

EPOCH          = 2025-11-16T20:00:01.999008
MEAN_MOTION    = 15.49288771
ECCENTRICITY   = .0001622
INCLINATION    = 53.1604
RA_OF_ASC_NODE = 228.6709
ARG_OF_PERICENTER = 92.2218
MEAN_ANOMALY   = 2.6006

EPHEMERIS_TYPE = 0
CLASSIFICATION_TYPE = U
NORAD_CAT_ID   = 66157
ELEMENT_SET_NO = 999
REV_AT_EPOCH   = 473
BSTAR          = -.33697E-3
MEAN_MOTION_DOT = -.19131E-3
MEAN_MOTION_DDOT = 0

CCSDS_OMM_VERS = 2.0
CREATION_DATE  = 
ORIGINATOR     = 

OBJECT_NAME    = STARLINK-35587
OBJECT_ID      = 2025-240N
CENTER_NAME    = EARTH
REF_FRAME      = TEME
TIME_SYSTEM    = UTC
MEAN_ELEMENT_THEORY = SGP/SGP4

EPOCH          = 2025-11-16T20:00:01.999008
MEAN_MOTION    = 15.43771654
ECCENTRICITY   = .0000841
INCLINATION    = 53.1598
RA_OF_ASC_NODE = 228.6907
ARG_OF_PERICENTER = 101.2559
MEAN_ANOMALY   = 343.1456

EPHEMERIS_TYPE = 0
CLASSIFICATION_TYPE = U
NORAD_CAT_ID   = 66158
ELEMENT_SET_NO = 999
REV_AT_EPOCH   = 473
BSTAR          = -.50525E-1
MEAN_MOTION_DOT = -.2061812E-1
MEAN_MOTION_DDOT = 0

CCSDS_OMM_VERS = 2.0
CREATION_DATE  = 
ORIGINATOR     = 

OBJECT_NAME    = STARLINK-35586
OBJECT_ID      = 2025-240P
CENTER_NAME    = EARTH
REF_FRAME      = TEME
TIME_SYSTEM    = UTC
MEAN_ELEMENT_THEORY = SGP/SGP4

EPOCH          = 2025-11-16T20:00:01.999008
MEAN_MOTION    = 15.49338380
ECCENTRICITY   = .0001249
INCLINATION    = 53.1604
RA_OF_ASC_NODE = 228.6629
ARG_OF_PERICENTER = 104.1654
MEAN_ANOMALY   = 354.4537

EPHEMERIS_TYPE = 0
CLASSIFICATION_TYPE = U
NORAD_CAT_ID   = 66159
ELEMENT_SET_NO = 999
REV_AT_EPOCH   = 474
BSTAR          = -.15989E-2
MEAN_MOTION_DOT = -.88467E-3
MEAN_MOTION_DDOT = 0

CCSDS_OMM_VERS = 2.0
CREATION_DATE  = 
ORIGINATOR     = 

OBJECT_NAME    = STARLINK-35636
OBJECT_ID      = 2025-240Q
CENTER_NAME    = EARTH
REF_FRAME      = TEME
TIME_SYSTEM    = UTC
MEAN_ELEMENT_THEORY = SGP/SGP4

EPOCH          = 2025-11-16T20:00:01.999008
MEAN_MOTION    = 15.42672794
ECCENTRICITY   = .0000527
INCLINATION    = 53.1600
RA_OF_ASC_NODE = 228.6882
ARG_OF_PERICENTER = 118.5216
MEAN_ANOMALY   = 326.8995

EPHEMERIS_TYPE = 0
CLASSIFICATION_TYPE = U
NORAD_CAT_ID   = 66160
ELEMENT_SET_NO = 999
REV_AT_EPOCH   = 474
BSTAR          = -.43512E-1
MEAN_MOTION_DOT = -.1743406E-1
MEAN_MOTION_DDOT = 0

CCSDS_OMM_VERS = 2.0
CREATION_DATE  = 
ORIGINATOR     = 

OBJECT_NAME    = STARLINK-35635
OBJECT_ID      = 2025-240R
CENTER_NAME    = EARTH
REF_FRAME      = TEME
TIME_SYSTEM    = UTC
MEAN_ELEMENT_THEORY = SGP/SGP4

EPOCH          = 2025-11-16T20:00:01.999008
MEAN_MOTION    = 15.39571890
ECCENTRICITY   = .0001193
INCLINATION    = 53.1604
RA_OF_ASC_NODE = 228.7313
ARG_OF_PERICENTER = 101.8347
MEAN_ANOMALY   = 321.8118

EPHEMERIS_TYPE = 0
CLASSIFICATION_TYPE = U
NORAD_CAT_ID   = 66161
ELEMENT_SET_NO = 999
REV_AT_EPOCH   = 474
BSTAR          = .87586E-3
MEAN_MOTION_DOT = .34738E-3
MEAN_MOTION_DDOT = 0

